ONEWEB-0350             
1 49214U 21083AE  25011.83656852  .00000142  00000+0  35289-3 0  9992
2 49214  87.8901  63.8970 0002164  98.5695 261.5680 13.13468042162495
ONEWEB-0351             
1 49215U 21083AF  25011.74943830  .00000072  00000+0  14453-3 0  9990
2 49215  87.9241  18.1795 0001770 118.8287 241.3024 13.20773429167946
ONEWEB-0352             
1 49216U 21083AG  25012.50312432  .00000329  00000+0  86627-3 0  9991
2 49216  87.8901  63.8007 0001967 113.7499 246.3836 13.13471431163974
ONEWEB-0354             
1 49217U 21083AH  25011.92634843  .00000005  00000+0 -19362-4 0  9995
2 49217  87.9245  18.1370 0002179  89.5921 270.5462 13.20773880168003
ONEWEB-0355             
1 49218U 21083AJ  25011.84767085 -.00000097  00000+0 -29950-3 0  9997
2 49218  87.8903  63.9306 0002015 103.5484 256.5869 13.13468079162463
ONEWEB-0357             
1 49219U 21083AK  25011.92319861 -.00000024  00000+0 -91961-4 0  9994
2 49219  87.9240  18.1490 0001854  95.5091 264.6254 13.20772289168002
ONEWEB-0332             
1 49279U 21090A   25011.81180508 -.00000032  00000+0 -12093-3 0  9997
2 49279  87.8982  33.3919 0001541  97.0874 263.0431 13.14502790159083
ONEWEB-0347             
1 49280U 21090B   25011.76221021  .00000020  00000+0  16253-4 0  9997
2 49280  87.9245  18.1853 0001349  87.1812 272.9476 13.20771804162212
